NORAD_CAT_ID,OBJECT_NAME,OBJECT_TYPE,EPOCH,MEAN_MOTION,ECCENTRICITY,INCLINATION,RA_OF_ASC_NODE,ARG_OF_PERICENTER,MEAN_ANOMALY,BSTAR,MEAN_MOTION_DOT,MEAN_MOTION_DDOT,TLE_LINE0,TLE_LINE1,TLE_LINE2,SEMIMAJOR_AXIS,PERIOD,APOGEE,PERIGEE,DECAYED
55786.0,STARLINK-5823,PAYLOAD,2024-05-07 22:45:40,14.98333463,0.0002726,69.9998,95.7158,265.7015,94.3833,-0.00010082,-1.296e-05,0.0,0 STARLINK-5823,1 55786U 23028AX  24128.94838113 -.00001296  00000-0 -10082-3 0  9994,2 55786  69.9998  95.7158 0002726 265.7015  94.3833 14.98333463 66557,6950.182,96.107,573.942,570.153,0.0
55786.0,STARLINK-5823,PAYLOAD,2024-05-08 05:10:12,14.98332717,0.0002738,69.9998,95.0425,265.7371,94.3475,-9.9926e-05,-1.285e-05,0.0,0 STARLINK-5823,1 55786U 23028AX  24129.21542088 -.00001285  00000-0 -99926-4 0  9991,2 55786  69.9998  95.0425 0002738 265.7371  94.3475 14.98332717 66581,6950.184,96.107,573.952,570.147,0.0
55786.0,STARLINK-5823,PAYLOAD,2024-05-08 06:46:20,14.98332476,0.0002738,69.9998,94.8742,265.8741,94.2105,-0.00010039,-1.291e-05,0.0,0 STARLINK-5823,1 55786U 23028AX  24129.28218090 -.00001291  00000-0 -10039-3 0  9995,2 55786  69.9998  94.8742 0002738 265.8741  94.2105 14.98332476 66606,6950.185,96.107,573.953,570.147,0.0
55786.0,STARLINK-5823,PAYLOAD,2024-05-08 22:47:40,14.98332732,0.0002737,69.9997,93.1903,267.5937,92.4909,-3.4102e-05,-5e-06,0.0,0 STARLINK-5823,1 55786U 23028AX  24129.94977797 -.00000500  00000-0 -34102-4 0  9994,2 55786  69.9997  93.1903 0002737 267.5937  92.4909 14.98332732 66709,6950.184,96.107,573.952,570.147,0.0
55786.0,STARLINK-5823,PAYLOAD,2024-05-09 05:12:13,14.98332478,0.0002753,69.9997,92.5171,267.0966,92.9878,-3.354e-05,-4.93e-06,0.0,0 STARLINK-5823,1 55786U 23028AX  24130.21681771 -.00000493  00000-0 -33540-4 0  9996,2 55786  69.9997  92.5171 0002753 267.0966  92.9878 14.98332478 66734,6950.185,96.107,573.964,570.137,0.0
55786.0,STARLINK-5823,PAYLOAD,2024-05-09 06:48:21,14.9833308,0.0002742,69.9998,92.3487,267.2354,92.8491,-2.4793e-05,-3.89e-06,0.0,0 STARLINK-5823,1 55786U 23028AX  24130.28357700 -.00000389  00000-0 -24793-4 0  9999,2 55786  69.9998  92.3487 0002742 267.2354  92.8491 14.98333080 66756,6950.183,96.107,573.954,570.143,0.0
55786.0,STARLINK-5823,PAYLOAD,2024-05-09 22:49:41,14.98326258,0.0002792,69.9997,90.6653,267.6863,92.3976,1.8117e-05,1.23e-06,0.0,0 STARLINK-5823,1 55786U 23028AX  24130.95117996  .00000123  00000-0  18117-4 0  9991,2 55786  69.9997  90.6653 0002792 267.6863  92.3976 14.98326258 66858,6950.204,96.107,574.01,570.129,0.0
55786.0,STARLINK-5823,PAYLOAD,2024-05-10 05:14:14,14.98323712,0.0002965,69.9998,89.9919,265.8869,94.1951,8.0557e-05,8.68e-06,0.0,0 STARLINK-5823,1 55786U 23028AX  24131.21822006  .00000868  00000-0  80557-4 0  9999,2 55786  69.9998  89.9919 0002965 265.8869  94.1951 14.98323712 66881,6950.212,96.107,574.138,570.017,0.0
55786.0,STARLINK-5823,PAYLOAD,2024-05-10 06:50:22,14.98323122,0.0003085,69.9998,89.8236,269.3185,90.7621,0.00010542,1.165e-05,0.0,0 STARLINK-5823,1 55786U 23028AX  24131.28498003  .00001165  00000-0  10542-3 0  9999,2 55786  69.9998  89.8236 0003085 269.3185  90.7621 14.98323122 66900,6950.214,96.107,574.223,569.935,0.0
55786.0,STARLINK-5823,PAYLOAD,2024-05-10 22:51:42,14.9832877,0.0002921,70.0004,88.1386,268.4576,91.6249,3.7038e-05,3.49e-06,0.0,0 STARLINK-5823,1 55786U 23028AX  24131.95257808  .00000349  00000-0  37038-4 0  9992,2 55786  70.0004  88.1386 0002921 268.4576  91.6249 14.98328770 67003,6950.197,96.107,574.092,570.032,0.0
55786.0,STARLINK-5823,PAYLOAD,2024-05-11 05:16:13,14.98349732,0.0002534,70.0001,87.4665,263.2523,96.8348,0.00021175,2.436e-05,0.0,0 STARLINK-5823,1 55786U 23028AX  24132.21959985  .00002436  00000-0  21175-3 0  9990,2 55786  70.0001  87.4665 0002534 263.2523  96.8348 14.98349732 67038,6950.132,96.106,573.758,570.236,0.0
55786.0,STARLINK-5823,PAYLOAD,2024-05-11 06:52:20,14.98361272,0.0002559,70.0001,87.2983,273.8485,86.2382,0.00034059,3.976e-05,0.0,0 STARLINK-5823,1 55786U 23028AX  24132.28634940  .00003976  00000-0  34059-3 0  9993,2 55786  70.0001  87.2983 0002559 273.8485  86.2382 14.98361272 67045,6950.096,96.105,573.74,570.183,0.0
55786.0,STARLINK-5823,PAYLOAD,2024-05-11 21:17:35,14.98323573,0.000292,69.9997,85.7826,266.352,93.7305,-0.00013951,-1.757e-05,0.0,0 STARLINK-5823,1 55786U 23028AX  24132.88721502 -.00001757  00000-0 -13951-3 0  9995,2 55786  69.9997  85.7826 0002920 266.3520  93.7305 14.98323573 67134,6950.213,96.107,574.107,570.048,0.0
55786.0,STARLINK-5823,PAYLOAD,2024-05-11 22:53:46,14.98278464,0.0003124,69.9998,85.614,275.7889,84.2914,-0.0006229,-7.508e-05,0.0,0 STARLINK-5823,1 55786U 23028AX  24132.95401603 -.00007508  00000-0 -62290-3 0  9990,2 55786  69.9998  85.6140 0003124 275.7889  84.2914 14.98278464 67153,6950.352,96.11,574.389,570.046,0.0
55786.0,STARLINK-5823,PAYLOAD,2024-05-12 05:18:19,14.98279366,0.0002768,70.0,84.9435,262.4532,97.6312,-0.00058837,-7.097e-05,0.0,0 STARLINK-5823,1 55786U 23028AX  24133.22106103 -.00007097  00000-0 -58837-3 0  9993,2 55786  70.0000  84.9435 0002768 262.4532  97.6312 14.98279366 67185,6950.349,96.11,574.138,570.291,0.0
55786.0,STARLINK-5823,PAYLOAD,2024-05-12 06:54:27,14.98278661,0.0002793,69.9999,84.775,262.6308,97.4534,-0.00058781,-7.09e-05,0.0,0 STARLINK-5823,1 55786U 23028AX  24133.28782313 -.00007090  00000-0 -58781-3 0  9993,2 55786  69.9999  84.7750 0002793 262.6308  97.4534 14.98278661 67202,6950.352,96.11,574.158,570.275,0.0
55786.0,STARLINK-5823,PAYLOAD,2024-05-12 21:19:40,14.98290661,0.0002685,70.0,83.2571,265.4575,94.6277,-0.00043035,-5.219e-05,0.0,0 STARLINK-5823,1 55786U 23028AX  24133.88866655 -.00005219  00000-0 -43035-3 0  9998,2 55786  70.0000  83.2571 0002685 265.4575  94.6277 14.98290661 67285,6950.315,96.11,574.046,570.313,0.0
55786.0,STARLINK-5823,PAYLOAD,2024-05-12 22:55:46,14.98318842,0.0002347,70.0002,83.089,239.2605,120.8323,-0.0001121,-1.43e-05,0.0,0 STARLINK-5823,1 55786U 23028AX  24133.95540254 -.00001430  00000-0 -11210-3 0  9991,2 55786  70.0002  83.0890 0002347 239.2605 120.8323 14.98318842 67306,6950.227,96.108,573.724,570.461,0.0
55786.0,STARLINK-5823,PAYLOAD,2024-05-13 05:20:18,14.98326411,0.000245,70.0009,82.4198,251.3162,108.7732,-4.1402e-05,-5.87e-06,0.0,0 STARLINK-5823,1 55786U 23028AX  24134.22243855 -.00000587  00000-0 -41402-4 0  9998,2 55786  70.0009  82.4198 0002450 251.3162 108.7732 14.98326411 67338,6950.204,96.107,573.772,570.366,0.0
55786.0,STARLINK-5823,PAYLOAD,2024-05-13 13:20:58,14.98345982,0.0002765,69.9999,81.5762,269.859,90.2252,-0.00019483,-2.418e-05,0.0,0 STARLINK-5823,1 55786U 23028AX  24134.55623050 -.00002418  00000-0 -19483-3 0  9991,2 55786  69.9999  81.5762 0002765 269.8590  90.2252 14.98345982 67390,6950.143,96.106,573.93,570.087,0.0
55786.0,STARLINK-5823,PAYLOAD,2024-05-14 03:46:10,14.98305982,0.0003015,69.9987,80.0598,265.7056,94.3758,0.00063939,7.54e-05,0.0,0 STARLINK-5823,1 55786U 23028AX  24135.15707110  .00007540  00000-0  63939-3 0  9992,2 55786  69.9987  80.0598 0003015 265.7056  94.3758 14.98305982 67470,6950.267,96.109,574.228,570.037,0.0
55786.0,STARLINK-5823,PAYLOAD,2024-05-14 13:22:59,14.98313936,0.0002967,69.9993,79.0502,266.4585,93.6235,0.00069156,8.165e-05,0.0,0 STARLINK-5823,1 55786U 23028AX  24135.55762960  .00008165  00000-0  69156-3 0  9991,2 55786  69.9993  79.0502 0002967 266.4585  93.6235 14.98313936 67548,6950.243,96.108,574.17,570.045,0.0
55786.0,STARLINK-5823,PAYLOAD,2024-05-14 22:59:46,14.98351556,0.0003098,69.999,78.04,266.8434,93.2371,0.00018013,2.058e-05,0.0,0 STARLINK-5823,1 55786U 23028AX  24135.95818111  .00002058  00000-0  18013-3 0  9996,2 55786  69.9990  78.0400 0003098 266.8434  93.2371 14.98351556 67608,6950.126,96.106,574.144,569.838,0.0
55786.0,STARLINK-5823,PAYLOAD,2024-05-15 05:24:17,14.98362254,0.0002882,69.9997,77.3674,267.2459,92.837,0.00027615,3.206e-05,0.0,0 STARLINK-5823,1 55786U 23028AX  24136.22520730  .00003206  00000-0  27615-3 0  9998,2 55786  69.9997  77.3674 0002882 267.2459  92.8370 14.98362254 67636,6950.093,96.105,573.961,569.955,0.0
55786.0,STARLINK-5823,PAYLOAD,2024-05-15 21:25:40,14.98340075,0.0002858,70.001,75.6834,271.5827,88.5004,-0.00012192,-1.548e-05,0.0,0 STARLINK-5823,1 55786U 23028AX  24136.89282520 -.00001548  00000-0 -12192-3 0  9996,2 55786  70.0010  75.6834 0002858 271.5827  88.5004 14.98340075 67738,6950.162,96.106,574.013,570.04,0.0
55786.0,STARLINK-5823,PAYLOAD,2024-05-15 23:01:48,14.98338231,0.0003243,69.9995,75.5147,271.8484,88.2304,-0.00011021,-1.408e-05,0.0,0 STARLINK-5823,1 55786U 23028AX  24136.95958427 -.00001408  00000-0 -11021-3 0  9994,2 55786  69.9995  75.5147 0003243 271.8484  88.2304 14.98338231 67757,6950.167,96.106,574.286,569.778,0.0
55786.0,STARLINK-5823,PAYLOAD,2024-05-16 13:27:00,14.98322469,0.0002939,70.0002,73.9989,275.5767,84.5057,0.00019371,2.219e-05,0.0,0 STARLINK-5823,1 55786U 23028AX  24137.56042393  .00002219  00000-0  19371-3 0  9993,2 55786  70.0002  73.9989 0002939 275.5767  84.5057 14.98322469 67841,6950.216,96.107,574.124,570.039,0.0
55786.0,STARLINK-5823,PAYLOAD,2024-05-17 03:52:11,14.98350911,0.0002907,70.0004,72.4855,268.6599,91.4227,-0.00019893,-2.467e-05,0.0,0 STARLINK-5823,1 55786U 23028AX  24138.16124689 -.00002467  00000-0 -19893-3 0  9995,2 55786  70.0004  72.4855 0002907 268.6599  91.4227 14.98350911 67928,6950.128,96.106,574.014,569.973,0.0
55786.0,STARLINK-5823,PAYLOAD,2024-05-17 13:29:00,14.98343024,0.00032,70.0025,71.4769,276.081,83.9984,-0.00024156,-2.975e-05,0.0,0 STARLINK-5823,1 55786U 23028AX  24138.56180869 -.00002975  00000-0 -24156-3 0  9993,2 55786  70.0025  71.4769 0003200 276.0810  83.9984 14.98343024 67990,6950.153,96.106,574.242,569.794,0.0
55786.0,STARLINK-5823,PAYLOAD,2024-05-17 21:29:41,14.98322187,0.0003136,70.0001,70.6328,261.6105,98.4698,-6.2303e-05,-8.36e-06,0.0,0 STARLINK-5823,1 55786U 23028AX  24138.89561857 -.00000836  00000-0 -62303-4 0  9990,2 55786  70.0001  70.6328 0003136 261.6105  98.4698 14.98322187 68037,6950.217,96.108,574.262,569.902,0.0
